[Satellite]
VERSION=1.1
NAME=DRAGON CRS-20
NICKNAME=DRAGON CRS-20
TLE1=1 45341U 20016A   20097.56160575  .00012665  00000-0  24019-3 0  9998
TLE2=2 45341  51.6425 342.9069 0003957  86.9440 343.4129 15.48693126220915
STATUS=0
